NORAD_CAT_ID,OBJECT_NAME,OBJECT_TYPE,EPOCH,MEAN_MOTION,ECCENTRICITY,INCLINATION,RA_OF_ASC_NODE,ARG_OF_PERICENTER,MEAN_ANOMALY,BSTAR,MEAN_MOTION_DOT,MEAN_MOTION_DDOT,TLE_LINE0,TLE_LINE1,TLE_LINE2,SEMIMAJOR_AXIS,PERIOD,APOGEE,PERIGEE,DECAYED
54083.0,STARLINK-5178,PAYLOAD,2024-01-12 21:26:39,15.08834501,0.0001554,53.2176,266.2558,92.0228,268.0942,2.8737e-05,1.69e-06,0.0,0 STARLINK-5178,1 54083U 22136AJ  24012.89351247  .00000169  00000-0  28737-4 0  9999,2 54083  53.2176 266.2558 0001554  92.0228 268.0942 15.08834501 68200,6917.897,95.438,540.837,538.687,0.0
54083.0,STARLINK-5178,PAYLOAD,2024-01-12 23:02:02,15.0883512,0.000149,53.2169,265.9578,84.9547,275.1615,3.9204e-05,3.36e-06,0.0,0 STARLINK-5178,1 54083U 22136AJ  24012.95975218  .00000336  00000-0  39204-4 0  9993,2 54083  53.2169 265.9578 0001490  84.9547 275.1615 15.08835120 68218,6917.895,95.438,540.791,538.73,0.0
54083.0,STARLINK-5178,PAYLOAD,2024-01-13 19:42:03,15.08830357,0.0001336,53.2167,262.092,104.9373,255.1767,0.00023352,3.43e-05,0.0,0 STARLINK-5178,1 54083U 22136AJ  24013.82086930  .00003430  00000-0  23352-3 0  9998,2 54083  53.2167 262.0920 0001336 104.9373 255.1767 15.08830357 68824,6917.91,95.438,540.699,538.851,0.0
54083.0,STARLINK-5178,PAYLOAD,2024-01-13 22:52:49,15.08848181,0.0001412,53.2161,261.4968,92.0626,268.0528,5.5059e-05,5.89e-06,0.0,0 STARLINK-5178,1 54083U 22136AJ  24013.95334540  .00000589  00000-0  55059-4 0  9997,2 54083  53.2161 261.4968 0001412  92.0626 268.0528 15.08848181 68840,6917.855,95.437,540.697,538.744,0.0
54083.0,STARLINK-5178,PAYLOAD,2024-01-14 19:32:49,15.08843824,0.0001334,53.2154,257.632,73.9894,286.1245,0.00013615,1.88e-05,0.0,0 STARLINK-5178,1 54083U 22136AJ  24014.81446658  .00001880  00000-0  13615-3 0  9993,2 54083  53.2154 257.6320 0001334  73.9894 286.1245 15.08843824 68979,6917.869,95.437,540.657,538.811,0.0
54083.0,STARLINK-5178,PAYLOAD,2024-01-14 22:43:35,15.08846998,0.0001327,53.215,257.0357,99.5494,260.5648,0.00015622,2.2e-05,0.0,0 STARLINK-5178,1 54083U 22136AJ  24014.94694305  .00002200  00000-0  15622-3 0  9998,2 54083  53.2150 257.0357 0001327  99.5494 260.5648 15.08846998 68519,6917.859,95.437,540.642,538.806,0.0
54083.0,STARLINK-5178,PAYLOAD,2024-01-15 19:23:37,15.0884175,0.0001313,53.2157,253.1702,91.3639,268.7503,2.0931e-05,4.5e-07,0.0,0 STARLINK-5178,1 54083U 22136AJ  24015.80806895  .00000045  00000-0  20931-4 0  9998,2 54083  53.2157 253.1702 0001313  91.3639 268.7503 15.08841750 69122,6917.875,95.437,540.648,538.832,0.0
54083.0,STARLINK-5178,PAYLOAD,2024-01-15 20:59:00,15.08840708,0.0001272,53.2155,252.8736,89.4853,270.6285,2.0625e-05,4e-07,0.0,0 STARLINK-5178,1 54083U 22136AJ  24015.87430936  .00000040  00000-0  20625-4 0  9999,2 54083  53.2155 252.8736 0001272  89.4853 270.6285 15.08840708 68651,6917.878,95.438,540.623,538.863,0.0
54083.0,STARLINK-5178,PAYLOAD,2024-01-16 01:45:09,15.08843738,0.0001258,53.2162,251.9798,91.9842,268.1295,7.8172e-06,-1.63e-06,0.0,0 STARLINK-5178,1 54083U 22136AJ  24016.07302670 -.00000163  00000-0  78172-5 0  9993,2 54083  53.2162 251.9798 0001258  91.9842 268.1295 15.08843738 68689,6917.869,95.437,540.604,538.864,0.0
54083.0,STARLINK-5178,PAYLOAD,2024-01-16 20:49:47,15.08842267,0.0001212,53.2166,248.4103,95.4654,264.6477,-2.8975e-05,-7.49e-06,0.0,0 STARLINK-5178,1 54083U 22136AJ  24016.86790967 -.00000749  00000-0 -28975-4 0  9996,2 54083  53.2166 248.4103 0001212  95.4654 264.6477 15.08842267 68807,6917.873,95.437,540.577,538.9,0.0
54083.0,STARLINK-5178,PAYLOAD,2024-01-17 19:05:10,15.08848034,0.0001636,53.2165,244.2434,86.0968,274.0211,0.00011566,1.554e-05,0.0,0 STARLINK-5178,1 54083U 22136AJ  24017.79525936  .00001554  00000-0  11566-3 0  9991,2 54083  53.2165 244.2434 0001636  86.0968 274.0211 15.08848034 69429,6917.856,95.437,540.853,538.589,0.0
54083.0,STARLINK-5178,PAYLOAD,2024-01-17 20:40:34,15.08828582,0.0001367,53.2164,243.9498,92.1752,267.9396,-3.6475e-05,-8.68e-06,0.0,0 STARLINK-5178,1 54083U 22136AJ  24017.86151311 -.00000868  00000-0 -36475-4 0  9997,2 54083  53.2164 243.9498 0001367  92.1752 267.9396 15.08828582 68952,6917.915,95.438,540.726,538.835,0.0
54083.0,STARLINK-5178,PAYLOAD,2024-01-18 01:26:44,15.08827496,0.0001399,53.2168,243.0585,82.1532,277.9619,-4.8059e-05,-1.052e-05,0.0,0 STARLINK-5178,1 54083U 22136AJ  24018.06023593 -.00001052  00000-0 -48059-4 0  9997,2 54083  53.2168 243.0585 0001399  82.1532 277.9619 15.08827496 69463,6917.919,95.438,540.751,538.816,0.0
54083.0,STARLINK-5178,PAYLOAD,2024-01-18 18:55:58,15.08833064,0.0001254,53.2156,239.7889,92.1577,267.9559,-1.1814e-05,-4.76e-06,0.0,0 STARLINK-5178,1 54083U 22136AJ  24018.78887472 -.00000476  00000-0 -11814-4 0  9998,2 54083  53.2156 239.7889 0001254  92.1577 267.9559 15.08833064 69571,6917.902,95.438,540.634,538.899,0.0
54083.0,STARLINK-5178,PAYLOAD,2024-01-18 22:06:44,15.0883599,0.0001345,53.216,239.1941,84.8857,275.2288,3.7511e-06,-2.28e-06,0.0,0 STARLINK-5178,1 54083U 22136AJ  24018.92135368 -.00000228  00000-0  37511-5 0  9991,2 54083  53.2160 239.1941 0001345  84.8857 275.2288 15.08835990 69110,6917.893,95.438,540.688,538.827,0.0
54083.0,STARLINK-5178,PAYLOAD,2024-01-18 23:42:06,15.0888163,0.0002379,53.2157,238.8962,117.6843,242.4391,-0.00059104,-9.694e-05,0.0,0 STARLINK-5178,1 54083U 22136AJ  24018.98757820 -.00009694  00000-0 -59104-3 0  9997,2 54083  53.2157 238.8962 0002379 117.6843 242.4391 15.08881630 69600,6917.753,95.435,541.264,537.972,0.0
54083.0,STARLINK-5178,PAYLOAD,2024-01-19 18:46:45,15.08830773,0.0001297,53.2153,235.3275,99.1905,260.9234,0.00015423,2.167e-05,0.0,0 STARLINK-5178,1 54083U 22136AJ  24019.78247193  .00002167  00000-0  15423-3 0  9995,2 54083  53.2153 235.3275 0001297  99.1905 260.9234 15.08830773 69722,6917.909,95.438,540.671,538.876,0.0
54083.0,STARLINK-5178,PAYLOAD,2024-01-19 21:57:31,15.08834077,0.0001319,53.2154,234.7327,97.0188,263.0954,0.00017875,2.558e-05,0.0,0 STARLINK-5178,1 54083U 22136AJ  24019.91495035  .00002558  00000-0  17875-3 0  9997,2 54083  53.2154 234.7327 0001319  97.0188 263.0954 15.08834077 69262,6917.898,95.438,540.676,538.851,0.0
54083.0,STARLINK-5178,PAYLOAD,2024-01-20 13:51:23,15.08834332,0.0001333,53.2152,231.7582,101.884,258.2302,0.00011825,1.594e-05,0.0,0 STARLINK-5178,1 54083U 22136AJ  24020.57735560  .00001594  00000-0  11825-3 0  9999,2 54083  53.2152 231.7582 0001333 101.8840 258.2302 15.08834332 69363,6917.898,95.438,540.685,538.841,0.0
54083.0,STARLINK-5178,PAYLOAD,2024-01-20 20:12:55,15.08838692,0.0001325,53.2152,230.5691,98.643,261.4712,8.0657e-05,9.96e-06,0.0,0 STARLINK-5178,1 54083U 22136AJ  24020.84231448  .00000996  00000-0  80657-4 0  9990,2 54083  53.2152 230.5691 0001325  98.6430 261.4712 15.08838692 69409,6917.884,95.438,540.666,538.833,0.0
54083.0,STARLINK-5178,PAYLOAD,2024-01-20 23:23:42,15.08840806,0.000133,53.2152,229.9741,100.6169,259.4973,9.5995e-05,1.24e-05,0.0,0 STARLINK-5178,1 54083U 22136AJ  24020.97479270  .00001240  00000-0  95995-4 0  9995,2 54083  53.2152 229.9741 0001330 100.6169 259.4973 15.08840806 69907,6917.878,95.438,540.663,538.823,0.0
54083.0,STARLINK-5178,PAYLOAD,2024-01-21 20:03:42,15.08842645,0.0001351,53.2151,226.1081,101.1007,259.0137,3.8163e-05,3.2e-06,0.0,0 STARLINK-5178,1 54083U 22136AJ  24021.83591363  .00000320  00000-0  38163-4 0  9991,2 54083  53.2151 226.1081 0001351 101.1007 259.0137 15.08842645 69554,6917.872,95.437,540.672,538.803,0.0
54083.0,STARLINK-5178,PAYLOAD,2024-01-22 19:54:29,15.08843425,0.0001356,53.2152,221.6476,100.3237,259.7908,7.1029e-05,8.43e-06,0.0,0 STARLINK-5178,1 54083U 22136AJ  24022.82951171  .00000843  00000-0  71029-4 0  9996,2 54083  53.2152 221.6476 0001356 100.3237 259.7908 15.08843425 70185,6917.87,95.437,540.673,538.797,0.0
54083.0,STARLINK-5178,PAYLOAD,2024-01-23 03:51:25,15.0883652,0.0001392,53.215,220.1608,96.0187,264.0963,5.911e-06,-1.94e-06,0.0,0 STARLINK-5178,1 54083U 22136AJ  24023.16071688 -.00000194  00000-0  59110-5 0  9998,2 54083  53.2150 220.1608 0001392  96.0187 264.0963 15.08836520 70233,6917.891,95.438,540.719,538.793,0.0
54083.0,STARLINK-5178,PAYLOAD,2024-01-23 21:20:40,15.08840982,0.0001324,53.2153,216.8902,94.3689,265.7454,5.1994e-05,5.4e-06,0.0,0 STARLINK-5178,1 54083U 22136AJ  24023.88935390  .00000540  00000-0  51994-4 0  9991,2 54083  53.2153 216.8902 0001324  94.3689 265.7454 15.08840982 69865,6917.877,95.437,540.658,538.826,0.0
54083.0,STARLINK-5178,PAYLOAD,2024-01-24 11:39:08,15.08838091,0.0001321,53.2151,214.2148,80.3774,279.7368,-3.8629e-06,-3.49e-06,0.0,0 STARLINK-5178,1 54083U 22136AJ  24024.48552025 -.00000349  00000-0 -38629-5 0  9998,2 54083  53.2151 214.2148 0001321  80.3774 279.7368 15.08838091 70436,6917.886,95.438,540.665,538.837,0.0
54083.0,STARLINK-5178,PAYLOAD,2024-01-24 13:14:32,15.08837487,0.0001328,53.2152,213.9161,91.6668,268.4477,7.3494e-06,-1.71e-06,0.0,0 STARLINK-5178,1 54083U 22136AJ  24024.55175997 -.00000171  00000-0  73494-5 0  9996,2 54083  53.2152 213.9161 0001328  91.6668 268.4477 15.08837487 69962,6917.888,95.438,540.672,538.834,0.0
54083.0,STARLINK-5178,PAYLOAD,2024-01-24 22:46:50,15.08841151,0.0001287,53.2157,212.1335,84.6785,275.4353,4.8811e-05,4.89e-06,0.0,0 STARLINK-5178,1 54083U 22136AJ  24024.94919805  .00000489  00000-0  48811-4 0  9998,2 54083  53.2157 212.1335 0001287  84.6785 275.4353 15.08841151 70020,6917.877,95.437,540.632,538.852,0.0
54083.0,STARLINK-5178,PAYLOAD,2024-01-25 19:26:51,15.08842704,0.0001241,53.2155,208.267,88.0626,272.0508,0.00012462,1.696e-05,0.0,0 STARLINK-5178,1 54083U 22136AJ  24025.81031694  .00001696  00000-0  12462-3 0  9999,2 54083  53.2155 208.2670 0001241  88.0626 272.0508 15.08842704 70635,6917.872,95.437,540.596,538.879,0.0
54083.0,STARLINK-5178,PAYLOAD,2024-01-26 19:17:38,15.08841918,0.0001226,53.2154,203.8062,84.3345,275.7787,0.00014477,2.017e-05,0.0,0 STARLINK-5178,1 54083U 22136AJ  24026.80391862  .00002017  00000-0  14477-3 0  9991,2 54083  53.2154 203.8062 0001226  84.3345 275.7787 15.08841918 70781,6917.875,95.437,540.588,538.891,0.0
